{
  "norad_id": 57992,
  "name": "STARLINK-30534",
  "history": [
    {
      "epoch": "2026-03-28T22:33:51.473376Z",
      "apogee_km": 483.310257070586,
      "perigee_km": 482.7078484471531,
      "latitude_deg": -4.811143161399221e-05,
      "longitude_deg": 153.2451575546095,
      "height_km": 482.87637792204663,
      "semi_major_axis_km": 6861.146052758869,
      "eccentricity": 4.39e-05,
      "inclination_deg": 43.001,
      "raan_deg": 318.0631,
      "arg_perigee_deg": 252.3353,
      "mean_anomaly_deg": 107.745,
      "mean_motion_rev_day": 15.27593373
    }
  ]
}